NORAD_CAT_ID,OBJECT_NAME,OBJECT_TYPE,EPOCH,MEAN_MOTION,ECCENTRICITY,INCLINATION,RA_OF_ASC_NODE,ARG_OF_PERICENTER,MEAN_ANOMALY,BSTAR,MEAN_MOTION_DOT,MEAN_MOTION_DDOT,TLE_LINE0,TLE_LINE1,TLE_LINE2,SEMIMAJOR_AXIS,PERIOD,APOGEE,PERIGEE,DECAYED
56452.0,STARLINK-5986,PAYLOAD,2024-04-17 09:33:18,14.98333273,0.0002556,69.9992,87.595,260.336,99.7511,5.0637e-05,5.11e-06,0.0,0 STARLINK-5986,1 56452U 23064E   24108.39812858  .00000511  00000-0  50637-4 0  9998,2 56452  69.9992  87.5950 0002556 260.3360  99.7511 14.98333273 51696,6950.183,96.107,573.824,570.271,0.0
56452.0,STARLINK-5986,PAYLOAD,2024-04-18 04:46:56,14.98318548,0.0002507,70.0008,85.5768,249.344,110.7451,-6.1348e-05,-8.25e-06,0.0,0 STARLINK-5986,1 56452U 23064E   24109.19926276 -.00000825  00000-0 -61348-4 0  9998,2 56452  70.0008  85.5768 0002507 249.3440 110.7451 14.98318548 52173,6950.228,96.108,573.836,570.351,0.0
56452.0,STARLINK-5986,PAYLOAD,2024-04-18 07:59:12,14.98319826,0.0002627,70.0005,85.2377,262.0515,98.0346,-0.00013705,-1.727e-05,0.0,0 STARLINK-5986,1 56452U 23064E   24109.33278533 -.00001727  00000-0 -13705-3 0  9995,2 56452  70.0005  85.2377 0002627 262.0515  98.0346 14.98319826 51834,6950.224,96.108,573.915,570.264,0.0
56452.0,STARLINK-5986,PAYLOAD,2024-04-19 04:48:56,14.98334011,0.0002795,69.9996,83.0494,248.0188,112.0674,3.8037e-05,3.61e-06,0.0,0 STARLINK-5986,1 56452U 23064E   24110.20065225  .00000361  00000-0  38037-4 0  9992,2 56452  69.9996  83.0494 0002795 248.0188 112.0674 14.98334011 52321,6950.18,96.107,573.988,570.103,0.0
56452.0,STARLINK-5986,PAYLOAD,2024-04-19 08:01:12,14.98335829,0.000282,69.9996,82.7131,255.1253,104.9594,7.6559e-05,8.21e-06,0.0,0 STARLINK-5986,1 56452U 23064E   24110.33416998  .00000821  00000-0  76559-4 0  9995,2 56452  69.9996  82.7131 0002820 255.1253 104.9594 14.98335829 51986,6950.175,96.107,574.0,570.08,0.0
56452.0,STARLINK-5986,PAYLOAD,2024-04-19 22:26:24,14.98332475,0.0002551,70.0003,81.199,256.3188,103.7687,0.00021519,2.476e-05,0.0,0 STARLINK-5986,1 56452U 23064E   24110.93500771  .00002476  00000-0  21519-3 0  9997,2 56452  70.0003  81.1990 0002551 256.3188 103.7687 14.98332475 52070,6950.185,96.107,573.823,570.277,0.0
56452.0,STARLINK-5986,PAYLOAD,2024-04-20 04:50:56,14.98335507,0.0002429,70.0003,80.5248,255.8502,104.2387,0.00026244,3.04e-05,0.0,0 STARLINK-5986,1 56452U 23064E   24111.20204408  .00003040  00000-0  26244-3 0  9994,2 56452  70.0003  80.5248 0002429 255.8502 104.2387 14.98335507 52473,6950.176,96.107,573.729,570.353,0.0
56452.0,STARLINK-5986,PAYLOAD,2024-04-20 08:03:12,14.98339975,0.0002492,70.0005,80.1897,254.981,105.1073,0.0002648,3.069e-05,0.0,0 STARLINK-5986,1 56452U 23064E   24111.33556011  .00003069  00000-0  26480-3 0  9991,2 56452  70.0005  80.1897 0002492 254.9810 105.1073 14.98339975 52131,6950.162,96.106,573.759,570.295,0.0
56452.0,STARLINK-5986,PAYLOAD,2024-04-20 20:52:18,14.98325417,0.0001124,70.0051,78.8484,209.1943,150.9154,2.4442e-05,1.99e-06,0.0,0 STARLINK-5986,1 56452U 23064E   24111.86965947  .00000199  00000-0  24442-4 0  9999,2 56452  70.0051  78.8484 0001124 209.1943 150.9154 14.98325417 52570,6950.207,96.107,572.853,571.291,0.0
56452.0,STARLINK-5986,PAYLOAD,2024-04-21 04:53:00,14.98314374,0.000285,70.0016,78.0069,226.632,133.4602,-0.00022717,-2.801e-05,0.0,0 STARLINK-5986,1 56452U 23064E   24112.20347330 -.00002801  00000-0 -22717-3 0  9994,2 56452  70.0016  78.0069 0002850 226.6320 133.4602 14.98314374 52622,6950.241,96.108,574.087,570.125,0.0
56452.0,STARLINK-5986,PAYLOAD,2024-04-21 08:05:16,14.98315293,0.0002808,69.9998,77.6643,268.3065,91.7773,-0.00022764,-2.807e-05,0.0,0 STARLINK-5986,1 56452U 23064E   24112.33699474 -.00002807  00000-0 -22764-3 0  9995,2 56452  69.9998  77.6643 0002808 268.3065  91.7773 14.98315293 52281,6950.238,96.108,574.055,570.152,0.0
56452.0,STARLINK-5986,PAYLOAD,2024-04-21 20:54:19,14.983337,0.0002822,69.9993,76.3148,273.9719,86.1117,-0.00010318,-1.324e-05,0.0,0 STARLINK-5986,1 56452U 23064E   24112.87106152 -.00001324  00000-0 -10318-3 0  9995,2 56452  69.9993  76.3148 0002822 273.9719  86.1117 14.98333700 52728,6950.181,96.107,574.008,570.085,0.0
56452.0,STARLINK-5986,PAYLOAD,2024-04-21 22:30:27,14.98373624,0.0002383,69.9985,76.1485,268.822,91.2666,-0.00070575,-8.513e-05,0.0,0 STARLINK-5986,1 56452U 23064E   24112.93781719 -.00008513  00000-0 -70575-3 0  9998,2 56452  69.9985  76.1485 0002383 268.8220  91.2666 14.98373624 52379,6950.058,96.104,573.579,570.267,0.0
56452.0,STARLINK-5986,PAYLOAD,2024-04-22 04:54:59,14.98340818,0.0002103,70.0014,75.4767,255.6143,104.4783,-5.9863e-06,-1.64e-06,0.0,0 STARLINK-5986,1 56452U 23064E   24113.20485293 -.00000164  00000-0 -59863-5 0  9990,2 56452  70.0014  75.4767 0002103 255.6143 104.4783 14.98340818 52778,6950.159,96.106,573.486,570.563,0.0
56452.0,STARLINK-5986,PAYLOAD,2024-04-22 06:31:07,14.98341537,0.0002078,70.0014,75.3085,256.0878,104.005,4.9866e-06,-3.3e-07,0.0,0 STARLINK-5986,1 56452U 23064E   24113.27161180 -.00000033  00000-0  49866-5 0  9999,2 56452  70.0014  75.3085 0002078 256.0878 104.0050 14.98341537 52425,6950.157,96.106,573.466,570.578,0.0
56452.0,STARLINK-5986,PAYLOAD,2024-04-22 22:32:28,14.98348892,0.0002213,70.0018,73.6276,248.309,111.7833,-0.00017258,-2.152e-05,0.0,0 STARLINK-5986,1 56452U 23064E   24113.93921406 -.00002152  00000-0 -17258-3 0  9990,2 56452  70.0018  73.6276 0002213 248.3090 111.7833 14.98348892 52529,6950.134,96.106,573.538,570.461,0.0
56452.0,STARLINK-5986,PAYLOAD,2024-04-23 04:57:01,14.98317505,0.0002634,70.0009,72.9521,259.1937,100.8926,0.00024247,2.8e-05,0.0,0 STARLINK-5986,1 56452U 23064E   24114.20626189  .00002800  00000-0  24247-3 0  9995,2 56452  70.0009  72.9521 0002634 259.1937 100.8926 14.98317505 52924,6950.232,96.108,573.927,570.266,0.0
56452.0,STARLINK-5986,PAYLOAD,2024-04-23 06:33:08,14.98320278,0.0002855,70.0001,72.7827,268.1604,91.9229,0.00024669,2.851e-05,0.0,0 STARLINK-5986,1 56452U 23064E   24114.27302052  .00002851  00000-0  24669-3 0  9996,2 56452  70.0001  72.7827 0002855 268.1604  91.9229 14.98320278 52577,6950.223,96.108,574.072,570.104,0.0
56452.0,STARLINK-5986,PAYLOAD,2024-04-23 20:58:21,14.9833541,0.0002802,70.0003,71.268,265.8087,94.2752,-5.8708e-05,-7.93e-06,0.0,0 STARLINK-5986,1 56452U 23064E   24114.87385966 -.00000793  00000-0 -58708-4 0  9994,2 56452  70.0003  71.2680 0002802 265.8087  94.2752 14.98335410 53023,6950.176,96.107,573.989,570.094,0.0
56452.0,STARLINK-5986,PAYLOAD,2024-04-23 22:34:29,14.98335839,0.0002666,70.0004,71.0997,259.8655,100.2203,-4.0468e-05,-5.76e-06,0.0,0 STARLINK-5986,1 56452U 23064E   24114.94061839 -.00000576  00000-0 -40468-4 0  9995,2 56452  70.0004  71.0997 0002666 259.8655 100.2203 14.98335839 52679,6950.175,96.107,573.893,570.187,0.0
56452.0,STARLINK-5986,PAYLOAD,2024-04-24 03:22:53,14.98349453,0.0002467,70.0008,70.5952,258.3117,101.7765,-0.00023457,-2.892e-05,0.0,0 STARLINK-5986,1 56452U 23064E   24115.14089400 -.00002892  00000-0 -23457-3 0  9993,2 56452  70.0008  70.5952 0002467 258.3117 101.7765 14.98349453 53064,6950.133,96.106,573.712,570.283,0.0
56452.0,STARLINK-5986,PAYLOAD,2024-04-24 06:35:09,14.98343616,0.000298,69.9996,70.2566,270.4624,89.6193,1.968e-05,1.42e-06,0.0,0 STARLINK-5986,1 56452U 23064E   24115.27441002  .00000142  00000-0  19680-4 0  9995,2 56452  69.9996  70.2566 0002980 270.4624  89.6193 14.98343616 52729,6950.151,96.106,574.087,569.945,0.0
56452.0,STARLINK-5986,PAYLOAD,2024-04-24 22:36:30,14.98330017,0.000275,70.0002,68.574,257.9023,102.1828,5.777e-06,-2.4e-07,0.0,0 STARLINK-5986,1 56452U 23064E   24115.94201642 -.00000024  00000-0  57770-5 0  9996,2 56452  70.0002  68.5740 0002750 257.9023 102.1828 14.98330017 52820,6950.193,96.107,573.969,570.147,0.0
56452.0,STARLINK-5986,PAYLOAD,2024-04-25 05:01:02,14.98332102,0.0002773,70.0003,67.9007,259.1481,100.9366,2.1641e-05,1.65e-06,0.0,0 STARLINK-5986,1 56452U 23064E   24116.20905445  .00000165  00000-0  21641-4 0  9990,2 56452  70.0003  67.9007 0002773 259.1481 100.9366 14.98332102 53222,6950.186,96.107,573.979,570.124,0.0
56452.0,STARLINK-5986,PAYLOAD,2024-04-25 06:37:10,14.98333657,0.0002757,70.0007,67.7327,262.8327,97.2518,5.3342e-05,5.44e-06,0.0,0 STARLINK-5986,1 56452U 23064E   24116.27581281  .00000544  00000-0  53342-4 0  9999,2 56452  70.0007  67.7327 0002757 262.8327  97.2518 14.98333657 52874,6950.182,96.107,573.963,570.13,0.0
56452.0,STARLINK-5986,PAYLOAD,2024-04-25 22:38:31,14.98332111,0.0002493,70.0015,66.0505,264.4818,95.6057,-6.1924e-06,-1.67e-06,0.0,0 STARLINK-5986,1 56452U 23064E   24116.94341546 -.00000167  00000-0 -61924-5 0  9990,2 56452  70.0015  66.0505 0002493 264.4818  95.6057 14.98332111 52978,6950.186,96.107,573.784,570.319,0.0
56452.0,STARLINK-5986,PAYLOAD,2024-04-26 05:03:03,14.98332622,0.0002544,70.0011,65.3773,266.3872,93.6997,-1.8067e-05,-3.08e-06,0.0,0 STARLINK-5986,1 56452U 23064E   24117.21045500 -.00000308  00000-0 -18067-4 0  9998,2 56452  70.0011  65.3773 0002544 266.3872  93.6997 14.98332622 53374,6950.185,96.107,573.818,570.282,0.0
56452.0,STARLINK-5986,PAYLOAD,2024-04-26 06:39:11,14.98334351,0.0002618,70.0012,65.2099,268.0062,92.0797,-3.1598e-06,-1.31e-06,0.0,0 STARLINK-5986,1 56452U 23064E   24117.27721334 -.00000131  00000-0 -31598-5 0  9999,2 56452  70.0012  65.2099 0002618 268.0062  92.0797 14.98334351 53021,6950.179,96.107,573.864,570.225,0.0
56452.0,STARLINK-5986,PAYLOAD,2024-04-26 21:04:23,14.98331575,0.0002818,70.0007,63.6942,268.1752,91.9084,7.17e-05,7.63e-06,0.0,0 STARLINK-5986,1 56452U 23064E   24117.87805073  .00000763  00000-0  71700-4 0  9995,2 56452  70.0007  63.6942 0002818 268.1752  91.9084 14.98331575 53115,6950.188,96.107,574.012,570.094,0.0
56452.0,STARLINK-5986,PAYLOAD,2024-04-27 03:28:55,14.98338833,0.0002709,70.0011,63.0219,257.5776,102.508,0.00014194,1.601e-05,0.0,0 STARLINK-5986,1 56452U 23064E   24118.14508305  .00001601  00000-0  14194-3 0  9999,2 56452  70.0011  63.0219 0002709 257.5776 102.5080 14.98338833 53511,6950.166,96.106,573.913,570.148,0.0
